COSMOS 2228             
1 22286U 92094A   25336.12706897  .00003114  00000+0  27025-3 0  9990
2 22286  82.5171 330.6898 0016276 270.6754  89.2604 14.96647291761468
SL-16 R/B               
1 22566U 93016B   25336.17411064 -.00000169  00000+0 -62249-4 0  9997
2 22566  71.0092  59.9936 0007874 117.7531 242.4391 14.15288847688379
COSMOS 2242             
1 22626U 93024A   25336.13504303  .00002606  00000+0  22951-3 0  9999
2 22626  82.5194 359.9813 0014765 273.6431  86.3102 14.96034598765801
SL-16 R/B               
1 22803U 93059B   25336.07423486  .00000240  00000+0  14252-3 0  9996
2 22803  70.9894 216.9762 0017316 351.3725   8.7098 14.17209084665703
ARIANE 40 R/B           
1 22830U 93061H   25336.14320402  .00000323  00000+0  13447-3 0  9998
2 22830  98.5090  41.8654 0010282 207.8248 152.2388 14.32789881680138
COSMOS 2278             
1 23087U 94023A   25336.13931677 -.00000003  00000+0  23134-4 0  9994
2 23087  71.0554  19.1886 0008923 195.3061 164.7793 14.14350776631010
SL-16 R/B               
1 23088U 94023B   25336.15964626  .00000361  00000+0  21100-3 0  9993
2 23088  70.9999 275.7036 0001060  79.9617 280.1625 14.14996714632294
SL-16 R/B               
1 23343U 94074B   25336.05360247  .00000627  00000+0  91020-4 0  9995
2 23343  97.7214   5.7825 0006764 167.2953 245.9280 14.79269495672810
SL-16 R/B               
1 23405U 94077B   25336.03792421 -.00000107  00000+0 -30329-4 0  9998
2 23405  70.9810 197.9272 0004575 292.5461  67.5178 14.15545620602418
ARIANE 40+ R/B          
1 23561U 95021B   25336.17127824  .00000395  00000+0  14010-3 0  9990
2 23561  98.4665  43.8872 0007771  77.5707 336.4964 14.39681886605217
SL-16 R/B               
1 23705U 95058B   25336.18143671  .00000315  00000+0  18555-3 0  9999
2 23705  71.0223  24.9720 0014875 268.4557  91.4862 14.15477422554056
SL-16 R/B               
1 24298U 96051B   25336.14858116 -.00000004  00000+0  24735-4 0  9998
2 24298  70.7602  21.7025 0019109 274.4445  85.4492 14.12394733507872
