CCSDS_OMM_VERS = 2.0
CREATION_DATE  = 
ORIGINATOR     = 

OBJECT_NAME    = COSMOS 2228
OBJECT_ID      = 1992-094A
CENTER_NAME    = EARTH
REF_FRAME      = TEME
TIME_SYSTEM    = UTC
MEAN_ELEMENT_THEORY = SGP/SGP4

EPOCH          = 2025-12-02T03:02:58.759008
MEAN_MOTION    = 14.96647291
ECCENTRICITY   = .0016276
INCLINATION    = 82.5171
RA_OF_ASC_NODE = 330.6898
ARG_OF_PERICENTER = 270.6754
MEAN_ANOMALY   = 89.2604

EPHEMERIS_TYPE = 0
CLASSIFICATION_TYPE = U
NORAD_CAT_ID   = 22286
ELEMENT_SET_NO = 999
REV_AT_EPOCH   = 76146
BSTAR          = .27025E-3
MEAN_MOTION_DOT = .3114E-4
MEAN_MOTION_DDOT = 0

CCSDS_OMM_VERS = 2.0
CREATION_DATE  = 
ORIGINATOR     = 

OBJECT_NAME    = SL-16 R/B
OBJECT_ID      = 1993-016B
CENTER_NAME    = EARTH
REF_FRAME      = TEME
TIME_SYSTEM    = UTC
MEAN_ELEMENT_THEORY = SGP/SGP4

EPOCH          = 2025-12-02T04:10:43.159296
MEAN_MOTION    = 14.15288847
ECCENTRICITY   = .0007874
INCLINATION    = 71.0092
RA_OF_ASC_NODE = 59.9936
ARG_OF_PERICENTER = 117.7531
MEAN_ANOMALY   = 242.4391

EPHEMERIS_TYPE = 0
CLASSIFICATION_TYPE = U
NORAD_CAT_ID   = 22566
ELEMENT_SET_NO = 999
REV_AT_EPOCH   = 68837
BSTAR          = -.62249E-4
MEAN_MOTION_DOT = -.169E-5
MEAN_MOTION_DDOT = 0

CCSDS_OMM_VERS = 2.0
CREATION_DATE  = 
ORIGINATOR     = 

OBJECT_NAME    = COSMOS 2242
OBJECT_ID      = 1993-024A
CENTER_NAME    = EARTH
REF_FRAME      = TEME
TIME_SYSTEM    = UTC
MEAN_ELEMENT_THEORY = SGP/SGP4

EPOCH          = 2025-12-02T03:14:27.717792
MEAN_MOTION    = 14.96034598
ECCENTRICITY   = .0014765
INCLINATION    = 82.5194
RA_OF_ASC_NODE = 359.9813
ARG_OF_PERICENTER = 273.6431
MEAN_ANOMALY   = 86.3102

EPHEMERIS_TYPE = 0
CLASSIFICATION_TYPE = U
NORAD_CAT_ID   = 22626
ELEMENT_SET_NO = 999
REV_AT_EPOCH   = 76580
BSTAR          = .22951E-3
MEAN_MOTION_DOT = .2606E-4
MEAN_MOTION_DDOT = 0

CCSDS_OMM_VERS = 2.0
CREATION_DATE  = 
ORIGINATOR     = 

OBJECT_NAME    = SL-16 R/B
OBJECT_ID      = 1993-059B
CENTER_NAME    = EARTH
REF_FRAME      = TEME
TIME_SYSTEM    = UTC
MEAN_ELEMENT_THEORY = SGP/SGP4

EPOCH          = 2025-12-02T01:46:53.891904
MEAN_MOTION    = 14.17209084
ECCENTRICITY   = .0017316
INCLINATION    = 70.9894
RA_OF_ASC_NODE = 216.9762
ARG_OF_PERICENTER = 351.3725
MEAN_ANOMALY   = 8.7098

EPHEMERIS_TYPE = 0
CLASSIFICATION_TYPE = U
NORAD_CAT_ID   = 22803
ELEMENT_SET_NO = 999
REV_AT_EPOCH   = 66570
BSTAR          = .14252E-3
MEAN_MOTION_DOT = .24E-5
MEAN_MOTION_DDOT = 0

CCSDS_OMM_VERS = 2.0
CREATION_DATE  = 
ORIGINATOR     = 

OBJECT_NAME    = ARIANE 40 R/B
OBJECT_ID      = 1993-061H
CENTER_NAME    = EARTH
REF_FRAME      = TEME
TIME_SYSTEM    = UTC
MEAN_ELEMENT_THEORY = SGP/SGP4

EPOCH          = 2025-12-02T03:26:12.827328
MEAN_MOTION    = 14.32789881
ECCENTRICITY   = .0010282
INCLINATION    = 98.5090
RA_OF_ASC_NODE = 41.8654
ARG_OF_PERICENTER = 207.8248
MEAN_ANOMALY   = 152.2388

EPHEMERIS_TYPE = 0
CLASSIFICATION_TYPE = U
NORAD_CAT_ID   = 22830
ELEMENT_SET_NO = 999
REV_AT_EPOCH   = 68013
BSTAR          = .13447E-3
MEAN_MOTION_DOT = .323E-5
MEAN_MOTION_DDOT = 0

CCSDS_OMM_VERS = 2.0
CREATION_DATE  = 
ORIGINATOR     = 

OBJECT_NAME    = COSMOS 2278
OBJECT_ID      = 1994-023A
CENTER_NAME    = EARTH
REF_FRAME      = TEME
TIME_SYSTEM    = UTC
MEAN_ELEMENT_THEORY = SGP/SGP4

EPOCH          = 2025-12-02T03:20:36.968928
MEAN_MOTION    = 14.14350776
ECCENTRICITY   = .0008923
INCLINATION    = 71.0554
RA_OF_ASC_NODE = 19.1886
ARG_OF_PERICENTER = 195.3061
MEAN_ANOMALY   = 164.7793

EPHEMERIS_TYPE = 0
CLASSIFICATION_TYPE = U
NORAD_CAT_ID   = 23087
ELEMENT_SET_NO = 999
REV_AT_EPOCH   = 63101
BSTAR          = .23134E-4
MEAN_MOTION_DOT = -.3E-7
MEAN_MOTION_DDOT = 0

CCSDS_OMM_VERS = 2.0
CREATION_DATE  = 
ORIGINATOR     = 

OBJECT_NAME    = SL-16 R/B
OBJECT_ID      = 1994-023B
CENTER_NAME    = EARTH
REF_FRAME      = TEME
TIME_SYSTEM    = UTC
MEAN_ELEMENT_THEORY = SGP/SGP4

EPOCH          = 2025-12-02T03:49:53.436864
MEAN_MOTION    = 14.14996714
ECCENTRICITY   = .000106
INCLINATION    = 70.9999
RA_OF_ASC_NODE = 275.7036
ARG_OF_PERICENTER = 79.9617
MEAN_ANOMALY   = 280.1625

EPHEMERIS_TYPE = 0
CLASSIFICATION_TYPE = U
NORAD_CAT_ID   = 23088
ELEMENT_SET_NO = 999
REV_AT_EPOCH   = 63229
BSTAR          = .211E-3
MEAN_MOTION_DOT = .361E-5
MEAN_MOTION_DDOT = 0

CCSDS_OMM_VERS = 2.0
CREATION_DATE  = 
ORIGINATOR     = 

OBJECT_NAME    = SL-16 R/B
OBJECT_ID      = 1994-074B
CENTER_NAME    = EARTH
REF_FRAME      = TEME
TIME_SYSTEM    = UTC
MEAN_ELEMENT_THEORY = SGP/SGP4

EPOCH          = 2025-12-02T01:17:11.253408
MEAN_MOTION    = 14.79269495
ECCENTRICITY   = .0006764
INCLINATION    = 97.7214
RA_OF_ASC_NODE = 5.7825
ARG_OF_PERICENTER = 167.2953
MEAN_ANOMALY   = 245.9280

EPHEMERIS_TYPE = 0
CLASSIFICATION_TYPE = U
NORAD_CAT_ID   = 23343
ELEMENT_SET_NO = 999
REV_AT_EPOCH   = 67281
BSTAR          = .9102E-4
MEAN_MOTION_DOT = .627E-5
MEAN_MOTION_DDOT = 0

CCSDS_OMM_VERS = 2.0
CREATION_DATE  = 
ORIGINATOR     = 

OBJECT_NAME    = SL-16 R/B
OBJECT_ID      = 1994-077B
CENTER_NAME    = EARTH
REF_FRAME      = TEME
TIME_SYSTEM    = UTC
MEAN_ELEMENT_THEORY = SGP/SGP4

EPOCH          = 2025-12-02T00:54:36.651744
MEAN_MOTION    = 14.15545620
ECCENTRICITY   = .0004575
INCLINATION    = 70.9810
RA_OF_ASC_NODE = 197.9272
ARG_OF_PERICENTER = 292.5461
MEAN_ANOMALY   = 67.5178

EPHEMERIS_TYPE = 0
CLASSIFICATION_TYPE = U
NORAD_CAT_ID   = 23405
ELEMENT_SET_NO = 999
REV_AT_EPOCH   = 60241
BSTAR          = -.30329E-4
MEAN_MOTION_DOT = -.107E-5
MEAN_MOTION_DDOT = 0

CCSDS_OMM_VERS = 2.0
CREATION_DATE  = 
ORIGINATOR     = 

OBJECT_NAME    = ARIANE 40+ R/B
OBJECT_ID      = 1995-021B
CENTER_NAME    = EARTH
REF_FRAME      = TEME
TIME_SYSTEM    = UTC
MEAN_ELEMENT_THEORY = SGP/SGP4

EPOCH          = 2025-12-02T04:06:38.439936
MEAN_MOTION    = 14.39681886
ECCENTRICITY   = .0007771
INCLINATION    = 98.4665
RA_OF_ASC_NODE = 43.8872
ARG_OF_PERICENTER = 77.5707
MEAN_ANOMALY   = 336.4964

EPHEMERIS_TYPE = 0
CLASSIFICATION_TYPE = U
NORAD_CAT_ID   = 23561
ELEMENT_SET_NO = 999
REV_AT_EPOCH   = 60521
BSTAR          = .1401E-3
MEAN_MOTION_DOT = .395E-5
MEAN_MOTION_DDOT = 0

CCSDS_OMM_VERS = 2.0
CREATION_DATE  = 
ORIGINATOR     = 

OBJECT_NAME    = SL-16 R/B
OBJECT_ID      = 1995-058B
CENTER_NAME    = EARTH
REF_FRAME      = TEME
TIME_SYSTEM    = UTC
MEAN_ELEMENT_THEORY = SGP/SGP4

EPOCH          = 2025-12-02T04:21:16.131744
MEAN_MOTION    = 14.15477422
ECCENTRICITY   = .0014875
INCLINATION    = 71.0223
RA_OF_ASC_NODE = 24.9720
ARG_OF_PERICENTER = 268.4557
MEAN_ANOMALY   = 91.4862

EPHEMERIS_TYPE = 0
CLASSIFICATION_TYPE = U
NORAD_CAT_ID   = 23705
ELEMENT_SET_NO = 999
REV_AT_EPOCH   = 55405
BSTAR          = .18555E-3
MEAN_MOTION_DOT = .315E-5
MEAN_MOTION_DDOT = 0

CCSDS_OMM_VERS = 2.0
CREATION_DATE  = 
ORIGINATOR     = 

OBJECT_NAME    = SL-16 R/B
OBJECT_ID      = 1996-051B
CENTER_NAME    = EARTH
REF_FRAME      = TEME
TIME_SYSTEM    = UTC
MEAN_ELEMENT_THEORY = SGP/SGP4

EPOCH          = 2025-12-02T03:33:57.412224
MEAN_MOTION    = 14.12394733
ECCENTRICITY   = .0019109
INCLINATION    = 70.7602
RA_OF_ASC_NODE = 21.7025
ARG_OF_PERICENTER = 274.4445
MEAN_ANOMALY   = 85.4492

EPHEMERIS_TYPE = 0
CLASSIFICATION_TYPE = U
NORAD_CAT_ID   = 24298
ELEMENT_SET_NO = 999
REV_AT_EPOCH   = 50787
BSTAR          = .24735E-4
MEAN_MOTION_DOT = -.4E-7
MEAN_MOTION_DDOT = 0

